OBJECT_NAME,OBJECT_ID,EPOCH,MEAN_MOTION,ECCENTRICITY,INCLINATION,RA_OF_ASC_NODE,ARG_OF_PERICENTER,MEAN_ANOMALY,EPHEMERIS_TYPE,CLASSIFICATION_TYPE,NORAD_CAT_ID,ELEMENT_SET_NO,REV_AT_EPOCH,BSTAR,MEAN_MOTION_DOT,MEAN_MOTION_DDOT
BSAT-4B,2020-056A,2026-06-05T19:10:18.932736,1.00273712,.00040936,0.0441,166.0874,303.6770,181.8793,0,U,46112,999,2127,0,-.337E-5,0
MEV-2,2020-056B,2026-06-05T22:04:06.764736,1.00270378,.00002704,0.0044,332.5454,174.1769,77.6479,0,U,46113,999,8044,0,.2E-7,0
GALAXY 30 (G-30),2020-056C,2026-06-05T18:03:21.158208,1.00272554,.00023928,0.0166,328.3240,103.7642,327.9175,0,U,46114,999,2117,0,.49E-6,0
GAOFEN-13 01,2020-071A,2026-06-05T19:12:48.694176,1.00265267,.00418357,0.4912,84.9567,122.7588,92.8203,0,U,46610,999,2080,0,-.35E-5,0
TIANTONG-1 2,2020-082A,2026-06-05T22:40:02.817120,1.00269630,.00015555,0.8056,325.8643,106.2410,287.2228,0,U,46916,999,2054,0,-.343E-5,0
LUCAS (JDRS-1),2020-089A,2026-06-05T22:30:11.262240,1.00269073,.00027696,0.0348,273.3616,147.9335,261.3875,0,U,47202,999,2030,0,-.222E-5,0
SXM-7,2020-096A,2026-06-05T09:41:21.066720,1.00273132,.00043462,0.0333,112.5259,12.3808,189.1172,0,U,47240,999,732,0,-.193E-5,0
CMS-01,2020-099A,2026-06-05T22:28:03.964800,1.00270829,.00035041,0.0700,100.9669,183.5678,29.8400,0,U,47256,999,2008,0,-.152E-5,0
TURKSAT 5A,2021-001A,2026-06-05T23:23:52.879776,1.00272409,.00002024,0.0178,53.0076,31.5006,191.8055,0,U,47306,999,1985,0,.167E-5,0
TIANTONG-1 3,2021-003A,2026-06-05T22:27:34.013376,1.00273076,.00035477,1.7655,338.6039,101.5955,232.5979,0,U,47321,999,1984,0,-.144E-5,0
TJS-6,2021-010A,2026-06-02T12:47:20.190048,1.00272435,.00026319,0.5630,87.7253,337.8803,195.7324,0,U,47613,999,1966,0,.55E-6,0
SBIRS GEO-5 (USA 315),2021-042A,2026-06-05T23:08:09.506688,1.00271894,.00017215,5.1182,329.0343,116.6357,249.5758,0,U,48618,999,1866,0,-.259E-5,0
FENGYUN 4B,2021-047A,2026-06-05T14:00:51.751584,1.00266147,.00051777,0.1239,75.7773,289.8220,203.2690,0,U,48808,999,1845,0,-.317E-5,0
SXM-8,2021-049A,2026-06-05T14:49:24.887424,1.00269181,.00049147,0.0212,19.6277,13.2799,358.3518,0,U,48838,999,1846,0,-.193E-5,0
TIANLIAN 1-05,2021-063A,2026-06-06T00:18:39.834720,1.00272869,.00010685,1.5643,80.7986,315.2256,239.9083,0,U,49011,999,1796,0,.121E-5,0
STAR ONE D2,2021-069A,2026-06-05T10:57:33.414336,1.00273562,.00020099,0.0118,347.6864,110.9827,249.5200,0,U,49055,999,1782,0,0,0
EUTELSAT QUANTUM,2021-069B,2026-06-05T22:17:57.434208,1.00271549,.00024742,0.0110,331.3269,99.4025,205.8151,0,U,49056,999,1781,0,.139E-5,0
ZHONGXING-2E,2021-071A,2026-06-06T00:02:08.616768,1.00269584,.00022666,0.0441,96.5135,44.1249,212.3758,0,U,49062,999,1792,0,-.278E-5,0
TJS-7,2021-077A,2026-06-05T23:18:40.701888,1.00271510,.00025306,0.4797,86.2231,333.2401,85.1524,0,U,49115,999,944,0,-.111E-5,0
CHINASAT 9B,2021-080A,2026-06-06T00:01:16.598784,1.00274996,.0001675,0.0187,65.0177,32.8390,258.2910,0,U,49125,999,1753,0,-.3E-5,0
SHIJIAN-21 (SJ-21),2021-094A,2026-06-06T00:08:10.332960,1.00277171,.00494045,5.0859,61.2458,167.9609,155.2264,0,U,49330,999,524,0,-.335E-5,0
SES-17,2021-095A,2026-06-05T13:11:54.791808,1.00274659,.00012565,0.0256,35.0891,56.0020,293.7793,0,U,49332,999,1773,0,-.26E-5,0
SYRACUSE 4A,2021-095B,2026-06-05T05:10:43.714272,1.00269576,.0001352,0.0167,333.7085,98.7464,304.3786,0,U,49333,999,1782,0,.147E-5,0
QZS-1R (MICHIBIKI-1R),2021-096A,2026-06-05T15:49:42.295584,1.00260126,.07541763,37.4382,79.7551,271.5566,274.8683,0,U,49336,999,1689,0,-.239E-5,0
ZHONGXING-1D,2021-114A,2026-06-06T04:47:38.792256,1.00275345,.0000074,0.0435,247.7766,341.6567,227.2665,0,U,49505,999,1671,0,-.323E-5,0
STPSAT-6,2021-118A,2026-06-05T23:15:11.035872,1.00273669,.0001449,0.2911,85.5248,261.8409,144.1256,0,U,49817,999,1646,0,-.33E-6,0
EXPRESS AMU-7,2021-123A,2026-06-05T21:03:01.288800,1.00272297,.0000177,0.0152,294.3911,101.4015,319.2735,0,U,50001,999,1642,0,-.23E-5,0
EXPRESS AMU-3,2021-123B,2026-06-06T00:10:17.793696,1.00272155,.0000512,0.0127,307.0019,354.8943,58.1048,0,U,50002,999,691,0,-.309E-5,0
TIANLIAN 2-02,2021-124A,2026-06-06T04:01:05.392992,1.00272679,.0001204,0.7727,86.2988,224.3678,175.1712,0,U,50005,999,1651,0,-.1E-7,0
TURKSAT 5B,2021-126A,2026-06-05T23:07:50.802816,1.00272345,.0003701,0.0677,340.8701,18.2674,284.2188,0,U,50212,999,1618,0,.159E-5,0
INMARSAT 6-F1,2021-128A,2026-06-05T20:45:32.963040,1.00270082,.0000358,0.0148,301.3078,217.0808,131.0461,0,U,50319,999,1614,0,-.159E-5,0
SHIYAN-12 01 (SY-12 01),2021-129A,2026-06-05T17:57:00.674208,1.00038143,.0003521,3.6444,80.0639,289.9045,223.1560,0,U,50321,999,1638,0,.23E-6,0
SHIYAN-12 02 (SY-12 02),2021-129B,2026-06-05T17:14:47.510016,1.00492384,.0002712,3.6440,80.0711,51.1091,101.5202,0,U,50322,999,1638,0,-.171E-5,0
TJS-9,2021-135A,2026-06-05T22:43:32.482272,1.00273239,.00049115,0.0637,257.0586,150.2367,325.1710,0,U,50574,999,1631,0,-.286E-5,0
GOES 18,2022-021A,2026-06-05T23:07:49.243296,1.00272126,.0000601,0.0410,133.3665,353.4996,337.4782,0,U,51850,999,648,0,.109E-5,0
ZHONGXING-6D,2022-038A,2026-06-04T22:46:07.528800,1.00271059,.00003048,0.0316,94.7812,255.6762,9.5470,0,U,52255,999,1530,0,-.341E-5,0
NILESAT 301,2022-061A,2026-06-05T22:02:21.932160,1.00272099,.00056157,0.0540,22.8030,20.4312,174.6980,0,U,52817,999,1462,0,-.45E-6,0
CMS-02 (GSAT-24),2022-067A,2026-06-05T22:28:03.964800,1.00271730,.00018952,0.0110,14.7866,0.0587,299.5440,0,U,52903,999,1449,0,-.152E-5,0
MEASAT 3D,2022-067B,2026-06-05T23:35:38.580288,1.00270963,.0001316,0.0276,355.1371,42.0344,302.6558,0,U,52904,999,1453,0,-.229E-5,0
SES-22,2022-071A,2026-06-05T17:59:21.539904,1.00273158,.000134,0.0143,356.5277,70.3921,318.0974,0,U,52933,999,740,0,.117E-5,0
WFOV (USA 332),2022-073A,2026-06-05T19:13:03.669888,1.00273592,.00021648,3.6810,78.6745,248.0643,335.0096,0,U,52940,999,1425,0,-.35E-5,0
TIANLIAN 2-03,2022-078A,2026-06-06T00:25:27.474240,1.00272329,.0001523,0.6440,76.8042,315.6346,238.9563,0,U,53100,999,1443,0,.85E-6,0
SBIRS GEO-6 (USA 336),2022-092A,2026-06-05T22:44:02.435424,1.00271504,.0002141,3.2774,317.2953,115.9344,301.1678,0,U,53355,999,1412,0,-.281E-5,0
EUTELSAT KONNECT VHTS,2022-110A,2026-06-05T08:23:47.944608,1.00271183,.00028777,0.0660,104.1914,316.7287,321.5236,0,U,53765,999,671,0,.29E-6,0
ZHONGXING-1E,2022-112A,2026-06-06T05:14:38.853600,1.00271130,.0000345,0.0415,105.3379,260.3004,49.0790,0,U,53813,999,1373,0,-.136E-5,0
SES-20,2022-123A,2026-06-05T14:44:17.877120,1.00272764,.00021576,0.0365,76.2394,4.3316,291.4558,0,U,53960,999,1341,0,-.89E-6,0
SES-21,2022-123B,2026-06-05T11:54:38.454624,1.00270202,.00008462,0.0279,33.4670,38.9311,229.1777,0,U,53961,999,709,0,.82E-6,0
GALAXY 33 (G-33),2022-128A,2026-06-05T16:18:24.319296,1.00271983,.00019902,0.0188,41.4682,33.6303,290.6250,0,U,54026,999,1362,0,.91E-6,0
GALAXY 34 (G-34),2022-128B,2026-06-05T16:19:31.712160,1.00277143,.00021505,0.0097,19.8053,65.6071,284.5904,0,U,54027,999,1379,0,.71E-6,0
ANGOSAT 2,2022-131A,2026-06-03T13:42:55.162656,1.00272126,.0001675,0.0320,77.4861,43.8281,359.4453,0,U,54033,999,1334,0,.147E-5,0
EUTELSAT HOTBIRD 13F,2022-134A,2026-06-05T20:25:23.739744,1.00271516,.00019362,0.0477,291.0535,73.5291,209.0539,0,U,54048,999,1326,0,.1E-5,0
LDPE-2,2022-144A,2026-06-05T14:15:39.071808,1.00528214,.00017046,5.5847,63.7457,91.4141,144.5119,0,U,54219,999,1172,0,.135E-5,0
EUTELSAT HOTBIRD 13G,2022-146A,2026-06-05T20:25:23.739744,1.00271587,.00021418,0.0462,232.4194,304.9579,36.2500,0,U,54225,999,735,0,.1E-5,0
ZHONGXING-19,2022-148A,2026-06-05T04:01:37.799040,1.00270450,.00023678,0.0304,274.7015,183.6689,18.8299,0,U,54230,999,1326,0,-.69E-6,0
GALAXY 31 (G-31),2022-153A,2026-06-05T16:21:46.497024,1.00272196,.00014609,0.0176,69.8886,5.4863,303.1817,0,U,54243,999,701,0,.26E-6,0
GALAXY 32 (G-32),2022-153B,2026-06-05T21:38:23.285760,1.00272257,.00023646,0.0124,19.6172,18.0232,90.2909,0,U,54244,999,1303,0,-.162E-5,0
EUTELSAT 10B,2022-157A,2026-06-04T23:52:34.690944,1.00270897,.00024584,0.0641,101.7982,9.9155,149.8574,0,U,54259,999,1290,0,.8E-6,0
GALAXY 35 (G-35),2022-170A,2026-06-05T21:37:45.845184,1.00272193,.0002218,0.0130,34.4732,43.8534,47.3488,0,U,54741,999,1278,0,-.15E-5,0
GALAXY 36 (G-36),2022-170B,2026-06-05T19:56:16.209888,1.00271802,.00027907,0.0072,280.0470,162.9441,21.3451,0,U,54742,999,1266,0,-.173E-5,0
METEOSAT-12 (MTG-I1),2022-170C,2026-06-05T22:04:14.253024,1.00271522,.00035212,0.7257,21.0494,69.9880,133.9431,0,U,54743,999,1286,0,.4E-7,0
SHIJIAN-23 (SJ-23),2023-002A,2026-06-05T17:59:56.976864,1.00090672,.0003906,3.6875,78.4564,277.5111,323.8270,0,U,55131,999,1239,0,-.175E-5,0
APSTAR-6E,2023-005A,2026-06-03T19:22:40.588608,1.00269237,.0001095,0.0296,251.9045,264.1846,160.8472,0,U,55239,999,1855,0,-.306E-5,0
USA 342,2023-008A,2026-06-04T03:24:27.751104,1.00271932,.0000373,0.0087,134.3874,135.9762,57.1445,0,U,55263,999,1238,0,.15E-5,0
LDPE-3A,2023-008B,2026-06-05T23:23:36.011040,0.99147899,.00012178,2.3178,81.8025,44.7834,55.1295,0,U,55264,999,1170,0,-.153E-5,0
ELEKTRO-L 4,2023-016A,2026-06-05T19:59:46.994784,1.00272579,.0000703,0.0736,183.7006,356.5399,179.7651,0,U,55506,999,1221,0,-.45E-6,0
AMAZONAS NEXUS,2023-017A,2026-06-05T13:13:39.624384,1.00270208,.00053907,0.0380,34.5795,27.5428,329.2887,0,U,55508,999,692,0,-.27E-5,0
ZHONGXING-26,2023-023A,2026-06-05T07:16:06.469824,1.00269832,.00041451,0.0711,72.6528,9.0865,46.1491,0,U,55686,999,1211,0,-.341E-5,0
LUCH-5X (OLYMP-K 2),2023-031A,2026-06-05T18:31:33.145824,1.00273024,.0000838,0.0251,55.0766,169.0546,9.9167,0,U,55841,999,1182,0,.46E-6,0
GAOFEN-13 02,2023-036A,2026-06-05T16:03:09.262080,1.00274019,.00042056,1.0187,359.6157,342.7251,300.8225,0,U,55912,999,1197,0,-.206E-5,0
SES-18,2023-038A,2026-06-05T21:34:53.620608,1.00271986,.00004114,0.0114,301.1715,63.8635,109.9250,0,U,55970,999,1199,0,-.88E-6,0
SES-19,2023-038B,2026-06-05T18:00:36.421056,1.00271028,.00018459,0.0268,295.0875,143.8329,310.5162,0,U,55971,999,1197,0,.1E-5,0
INTELSAT 40E (IS-40E),2023-052A,2026-06-05T21:38:23.285760,1.00272069,.00021121,0.0130,42.7160,73.5170,11.6989,0,U,56174,999,1171,0,-.162E-5,0
